NORAD_CAT_ID,OBJECT_NAME,OBJECT_TYPE,EPOCH,MEAN_MOTION,ECCENTRICITY,INCLINATION,RA_OF_ASC_NODE,ARG_OF_PERICENTER,MEAN_ANOMALY,BSTAR,MEAN_MOTION_DOT,MEAN_MOTION_DDOT,TLE_LINE0,TLE_LINE1,TLE_LINE2,SEMIMAJOR_AXIS,PERIOD,APOGEE,PERIGEE,DECAYED
52129.0,STARLINK-3661,PAYLOAD,2023-08-04 09:15:45,15.08836946,9.98e-05,53.2178,6.2243,80.6109,279.4996,-1.3391e-05,-5.01e-06,0.0,0 STARLINK-3661,1 52129U 22029AT  23216.38594003 -.00000501  00000-0 -13391-4 0  9999,2 52129  53.2178   6.2243 0000998  80.6109 279.4996 15.08836946 77778,6917.89,95.438,540.445,539.064,0.0
52129.0,STARLINK-3661,PAYLOAD,2023-08-05 17:03:27,15.08855103,9.04e-05,53.2173,0.276,80.5425,279.5669,0.00027474,4.089e-05,0.0,0 STARLINK-3661,1 52129U 22029AT  23217.71073208  .00004089  00000-0  27474-3 0  9995,2 52129  53.2173   0.2760 0000904  80.5425 279.5669 15.08855103 77974,6917.834,95.437,540.325,539.074,0.0
52129.0,STARLINK-3661,PAYLOAD,2023-08-06 10:32:43,15.08824791,0.0001073,53.2171,357.0046,111.6712,248.4394,-7.939e-05,-1.55e-05,0.0,0 STARLINK-3661,1 52129U 22029AT  23218.43938955 -.00001550  00000-0 -79390-4 0  9991,2 52129  53.2171 357.0046 0001073 111.6712 248.4394 15.08824791 78087,6917.927,95.439,540.534,539.05,0.0
52129.0,STARLINK-3661,PAYLOAD,2023-08-07 15:09:40,15.08842502,9.13e-05,53.2173,351.6518,108.9005,251.2086,0.00035176,5.315e-05,0.0,0 STARLINK-3661,1 52129U 22029AT  23219.63171673  .00005315  00000-0  35176-3 0  9994,2 52129  53.2173 351.6518 0000913 108.9005 251.2086 15.08842502 78269,6917.873,95.437,540.369,539.106,0.0
52129.0,STARLINK-3661,PAYLOAD,2023-08-08 15:00:26,15.08867421,8.51e-05,53.2161,347.1917,100.7206,259.3882,0.00086212,0.0001347,0.0,0 STARLINK-3661,1 52129U 22029AT  23220.62531187  .00013470  00000-0  86212-3 0  9993,2 52129  53.2161 347.1917 0000851 100.7206 259.3882 15.08867421 78410,6917.797,95.436,540.25,539.073,0.0
52129.0,STARLINK-3661,PAYLOAD,2023-08-09 08:29:41,15.08853243,7.48e-05,53.2154,343.9199,75.3339,284.7736,0.00036128,5.469e-05,0.0,0 STARLINK-3661,1 52129U 22029AT  23221.35395059  .00005469  00000-0  36128-3 0  9990,2 52129  53.2154 343.9199 0000748  75.3339 284.7736 15.08853243 78526,6917.84,95.437,540.222,539.187,0.0
52129.0,STARLINK-3661,PAYLOAD,2023-08-09 14:51:13,15.0884871,8.25e-05,53.2177,342.7274,119.2367,240.8707,0.00018859,2.716e-05,0.0,0 STARLINK-3661,1 52129U 22029AT  23221.61890976  .00002716  00000-0  18859-3 0  9990,2 52129  53.2177 342.7274 0000825 119.2367 240.8707 15.08848710 78565,6917.854,95.437,540.289,539.148,0.0
52129.0,STARLINK-3661,PAYLOAD,2023-08-10 09:55:51,15.0884688,8.83e-05,53.2168,339.1635,70.9737,289.135,7.1642e-05,8.53e-06,0.0,0 STARLINK-3661,1 52129U 22029AT  23222.41378970  .00000853  00000-0  71642-4 0  9994,2 52129  53.2168 339.1635 0000883  70.9737 289.1350 15.08846880 78683,6917.859,95.437,540.335,539.114,0.0
52129.0,STARLINK-3661,PAYLOAD,2023-08-10 14:42:00,15.0885494,8.42e-05,53.218,338.2715,82.0689,278.0399,9.2944e-05,1.192e-05,0.0,0 STARLINK-3661,1 52129U 22029AT  23222.61250295  .00001192  00000-0  92944-4 0  9990,2 52129  53.2180 338.2715 0000842  82.0689 278.0399 15.08854940 78711,6917.835,95.437,540.282,539.117,0.0
52129.0,STARLINK-3661,PAYLOAD,2023-08-11 00:14:19,15.08846564,8.22e-05,53.2184,336.4874,70.7629,289.3452,-9.4075e-06,-4.37e-06,0.0,0 STARLINK-3661,1 52129U 22029AT  23223.00994577 -.00000437  00000-0 -94075-5 0  9993,2 52129  53.2184 336.4874 0000822  70.7629 289.3452 15.08846564 78771,6917.86,95.437,540.294,539.157,0.0
52129.0,STARLINK-3661,PAYLOAD,2023-08-11 08:11:15,15.08837765,9.87e-05,53.2186,335.003,72.6929,287.4171,8.1407e-05,1.008e-05,0.0,0 STARLINK-3661,1 52129U 22029AT  23223.34115257  .00001008  00000-0  81407-4 0  9997,2 52129  53.2186 335.0030 0000987  72.6929 287.4171 15.08837765 78824,6917.887,95.438,540.435,539.069,0.0
52129.0,STARLINK-3661,PAYLOAD,2023-08-12 11:12:48,15.08843018,8.61e-05,53.219,329.9465,84.8267,275.2823,-1.2507e-05,-4.87e-06,0.0,0 STARLINK-3661,1 52129U 22029AT  23224.46722891 -.00000487  00000-0 -12507-4 0  9996,2 52129  53.2190 329.9465 0000861  84.8267 275.2823 15.08843018 78999,6917.871,95.437,540.332,539.141,0.0
52129.0,STARLINK-3661,PAYLOAD,2023-08-13 07:52:49,15.08833249,9.03e-05,53.2157,326.0786,82.0893,278.0201,6.6389e-06,-1.82e-06,0.0,0 STARLINK-3661,1 52129U 22029AT  23225.32835455 -.00000182  00000-0  66389-5 0  9992,2 52129  53.2157 326.0786 0000903  82.0893 278.0201 15.08833249 79120,6917.901,95.438,540.391,539.141,0.0
52129.0,STARLINK-3661,PAYLOAD,2023-08-14 10:54:23,15.08838774,9.66e-05,53.2189,321.0257,87.8134,272.2969,0.00011217,1.498e-05,0.0,0 STARLINK-3661,1 52129U 22029AT  23226.45443577  .00001498  00000-0  11217-3 0  9995,2 52129  53.2189 321.0257 0000966  87.8134 272.2969 15.08838774 79296,6917.884,95.438,540.417,539.081,0.0
52129.0,STARLINK-3661,PAYLOAD,2023-08-16 10:35:57,15.08842907,0.000108,53.2183,312.1049,79.8006,280.3108,0.00010012,1.306e-05,0.0,0 STARLINK-3661,1 52129U 22029AT  23228.44163231  .00001306  00000-0  10012-3 0  9992,2 52129  53.2183 312.1049 0001080  79.8006 280.3108 15.08842907 79598,6917.872,95.437,540.484,538.989,0.0
52129.0,STARLINK-3661,PAYLOAD,2023-08-17 10:26:44,15.08824472,0.0001059,53.2185,307.6445,94.4684,265.643,0.00023834,3.506e-05,0.0,0 STARLINK-3661,1 52129U 22029AT  23229.43524040  .00003506  00000-0  23834-3 0  9991,2 52129  53.2185 307.6445 0001059  94.4684 265.6430 15.08824472 79748,6917.928,95.439,540.525,539.06,0.0
52129.0,STARLINK-3661,PAYLOAD,2023-08-18 10:17:31,15.08836505,0.000129,53.2189,303.1847,105.1829,254.9306,3.7612e-05,3.11e-06,0.0,0 STARLINK-3661,1 52129U 22029AT  23230.42883741  .00000311  00000-0  37612-4 0  9999,2 52129  53.2189 303.1847 0001290 105.1829 254.9306 15.08836505 79896,6917.891,95.438,540.648,538.864,0.0
52129.0,STARLINK-3661,PAYLOAD,2023-08-20 03:37:33,15.08837648,0.0001203,53.2179,295.4523,97.5882,262.5246,2.3198e-05,8.1e-07,0.0,0 STARLINK-3661,1 52129U 22029AT  23232.15108120  .00000081  00000-0  23198-4 0  9990,2 52129  53.2179 295.4523 0001203  97.5882 262.5246 15.08837648 80154,6917.888,95.438,540.585,538.92,0.0
52129.0,STARLINK-3661,PAYLOAD,2023-08-21 11:25:15,15.08841839,0.0001297,53.2175,289.5045,91.9807,268.1334,7.1713e-05,8.54e-06,0.0,0 STARLINK-3661,1 52129U 22029AT  23233.47587853  .00000854  00000-0  71713-4 0  9994,2 52129  53.2175 289.5045 0001297  91.9807 268.1334 15.08841839 80350,6917.875,95.437,540.637,538.843,0.0
52129.0,STARLINK-3661,PAYLOAD,2023-08-22 03:19:07,15.08837774,0.0001183,53.2172,286.5309,79.9851,280.1274,3.2947e-05,2.37e-06,0.0,0 STARLINK-3661,1 52129U 22029AT  23234.13828338  .00000237  00000-0  32947-4 0  9995,2 52129  53.2172 286.5309 0001183  79.9851 280.1274 15.08837774 80457,6917.887,95.438,540.571,538.934,0.0
52129.0,STARLINK-3661,PAYLOAD,2023-08-23 07:56:03,15.08843584,0.0001262,53.2167,281.1783,84.0295,276.0841,8.3528e-05,1.042e-05,0.0,0 STARLINK-3661,1 52129U 22029AT  23235.33059796  .00001042  00000-0  83528-4 0  9998,2 52129  53.2167 281.1783 0001262  84.0295 276.0841 15.08843584 80635,6917.869,95.437,540.607,538.861,0.0
52129.0,STARLINK-3661,PAYLOAD,2023-08-24 09:22:14,15.08832155,0.000109,53.2161,276.4176,102.9305,257.1809,-5.2748e-05,-1.127e-05,0.0,0 STARLINK-3661,1 52129U 22029AT  23236.39044995 -.00001127  00000-0 -52748-4 0  9996,2 52129  53.2161 276.4176 0001090 102.9305 257.1809 15.08832155 80796,6917.904,95.438,540.523,539.015,0.0
52129.0,STARLINK-3661,PAYLOAD,2023-08-25 09:13:01,15.08838009,0.0001181,53.2163,271.9603,90.9286,269.1841,7.2539e-05,8.67e-06,0.0,0 STARLINK-3661,1 52129U 22029AT  23237.38404625  .00000867  00000-0  72539-4 0  9994,2 52129  53.2163 271.9603 0001181  90.9286 269.1841 15.08838009 80948,6917.886,95.438,540.568,538.934,0.0
52129.0,STARLINK-3661,PAYLOAD,2023-08-26 09:03:48,15.08841866,0.0001232,53.2166,267.4985,98.4443,261.6689,0.00018554,2.666e-05,0.0,0 STARLINK-3661,1 52129U 22029AT  23238.37764171  .00002666  00000-0  18554-3 0  9994,2 52129  53.2166 267.4985 0001232  98.4443 261.6689 15.08841866 81098,6917.875,95.437,540.592,538.887,0.0
52129.0,STARLINK-3661,PAYLOAD,2023-08-27 02:33:03,15.08840592,0.0001342,53.217,264.2277,99.3809,260.7335,3.5446e-05,2.76e-06,0.0,0 STARLINK-3661,1 52129U 22029AT  23239.10628745  .00000276  00000-0  35446-4 0  9997,2 52129  53.2170 264.2277 0001342  99.3809 260.7335 15.08840592 81206,6917.879,95.438,540.672,538.815,0.0
52129.0,STARLINK-3661,PAYLOAD,2023-08-28 08:45:22,15.08841612,0.0001299,53.2163,258.577,91.9124,268.2017,-1.4456e-05,-5.18e-06,0.0,0 STARLINK-3661,1 52129U 22029AT  23240.36484810 -.00000518  00000-0 -14456-4 0  9999,2 52129  53.2163 258.5770 0001299  91.9124 268.2017 15.08841612 81395,6917.875,95.437,540.639,538.842,0.0
52129.0,STARLINK-3661,PAYLOAD,2023-08-29 10:11:32,15.08842412,0.0001289,53.2162,253.8187,86.4576,273.6564,0.0001058,1.396e-05,0.0,0 STARLINK-3661,1 52129U 22029AT  23241.42468414  .00001396  00000-0  10580-3 0  9995,2 52129  53.2162 253.8187 0001289  86.4576 273.6564 15.08842412 81557,6917.873,95.437,540.63,538.846,0.0
52129.0,STARLINK-3661,PAYLOAD,2023-08-30 00:30:01,15.0883611,0.0001362,53.2164,251.1427,86.272,273.8428,2.4522e-05,1.02e-06,0.0,0 STARLINK-3661,1 52129U 22029AT  23242.02085156  .00000102  00000-0  24522-4 0  9996,2 52129  53.2164 251.1427 0001362  86.2720 273.8428 15.08836110 81647,6917.892,95.438,540.699,538.815,0.0
52129.0,STARLINK-3661,PAYLOAD,2023-08-30 17:59:15,15.08839159,0.000107,53.2164,247.8723,111.5077,248.603,-7.3092e-07,-2.99e-06,0.0,0 STARLINK-3661,1 52129U 22029AT  23242.74948974 -.00000299  00000-0 -73092-6 0  9998,2 52129  53.2164 247.8723 0001070 111.5077 248.6030 15.08839159 81758,6917.883,95.438,540.488,539.008,0.0
52129.0,STARLINK-3661,PAYLOAD,2023-08-31 00:20:48,15.08851831,0.0001261,53.2167,246.6829,85.3615,274.7521,-0.00013602,-2.453e-05,0.0,0 STARLINK-3661,1 52129U 22029AT  23243.01444893 -.00002453  00000-0 -13602-3 0  9992,2 52129  53.2167 246.6829 0001261  85.3615 274.7521 15.08851831 81793,6917.844,95.437,540.582,538.837,0.0
